#dP2021  9 30  0  0  0.00000000      96 __u+U ITR00 FIT  IAC
## 2177 345600.00000000   900.00000000 59487 0.0000000000000
+  126   C01C02C03C04C05C06C07C08C09C10C11C12C13C14C16C19C20
+        C21C22C23C24C25C26C27C28C29C30C32C33C34C35C36C37C38
+        C39C40C41C42C43C44C45C46C59C60E01E02E03E04E05E07E08
+        E09E11E12E13E14E15E18E19E21E24E25E26E27E30E31E33E36
+        G01G02G03G04G05G06G07G08G09G10G12G13G14G15G16G17G18
+        G19G20G21G22G23G24G25G26G27G28G29G30G31G32J01J02J03
+        J07R01R02R03R04R05R06R07R08R09R10R12R13R14R15R16R17
+        R18R19R20R21R22R23R24  0  0  0  0  0  0  0  0  0  0
++         0  0  0  0  0  0  0  0  0  0  0  0  0  0  0  0  0
++         0  0  0  0  0  0  0  0  0  0  0  0  0  0  0  0  0
++         0  0  0  0  0  0  0  0  0  0  0  0  0  0  0  0  0
++         0  0  0  0  0  0  0  0  0  0  0  0  0  0  0  0  0
++         0  0  0  0  0  0  0  0  0  0  0  0  0  0  0  0  0
++         0  0  0  0  0  0  0  0  0  0  0  0  0  0  0  0  0
++         0  0  0  0  0  0  0  0  0  0  0  0  0  0  0  0  0
++         0  0  0  0  0  0  0  0  0  0  0  0  0  0  0  0  0
%c M  cc GPS ccc cccc cccc cccc cccc ccccc ccccc ccccc ccccc
%c cc cc ccc ccc cccc cccc cccc cccc ccccc ccccc ccccc ccccc
%f  0.0000000  0.000000000  0.00000000000  0.000000000000000
%f  0.0000000  0.000000000  0.00000000000  0.000000000000000
%i    0    0    0    0      0      0      0      0         0
%i    0    0    0    0      0      0      0      0         0
/* INFORMATION & ANALYSIS CENTER (IAC)            RAPID DATA
/* S/V CLOCKS ARE ALIGNED TO GNSS TIME                      
/* G:C1WC2W R:C1PC2P E:C1XC5X C:C2IC6I J:C1CC2S             
/* PCV:IGS14_2163 OL/AL:FES2004  NONE     YN ORB:CoN CLK:CoN
*  2021 09 30 16 15  0.00000000
PC01 -34364.198874  24486.539105    -19.021726   -591.003793
PC02   4397.892842  41888.705716   -939.184242    290.251851
PC03 -14741.212553  39477.139568  -1283.428300    -94.171029
PC04 -39593.465748  14532.682154    135.333903    116.002514
PC05  21934.449704  35988.637022  -1138.532610    251.688377
PC06 -11918.287588  40326.352010  -1168.178505    266.988194
PC07  -4394.762140  28805.331642  30519.783675   -161.561329
PC08 -16987.420887  23547.305666 -30637.285521   -909.721608
PC09  -6461.905773  40551.151891   8735.040188   -147.301609
PC10   3925.554610  32133.526381  27498.119195      3.619194
PC11  12278.699022  10279.942625 -22796.579110    604.660125
PC12    846.388254  24703.188185 -12947.204493    747.757012
PC13  -8575.857165  24691.505318 -33048.632538    426.663988
PC14  21555.241049  16507.932409   6587.173973    613.490339
PC16 -13465.343296  39577.717930  -4261.908423   -784.874684
PC19 -21964.170699  -8488.360189 -14948.609450    955.049991
PC20 -18406.377867 -20928.278703   1078.450292   -797.013553
PC21   3586.566523  21549.490877 -17368.035152   -931.751949
PC22 -12917.179724   9346.193256 -22909.643358   -954.590063
PC23  23388.334046 -11986.531629  -9366.189897   -965.601900
PC24  13816.280156  12305.941575  20883.181014   -968.841672
PC25  26830.306065  -1010.842792   7565.346479   -847.033377
PC26  -5229.139654  17069.299259  21452.025837    842.711434
PC27   5616.904028 -26964.914265   4494.862914    605.714568
PC28  15630.535652 -19251.098467 -12784.305483    -20.343508
PC29 -16459.930893    864.762299  22512.645715    454.205182
PC30  -8015.055598 -19061.622055  18741.334056    482.146894
PC32  -3655.394342 -21493.305382  17420.205860   -955.440069
PC33  22055.654340   8448.913998  14871.111788   -967.863702
PC34   8560.610193  18354.366597 -19200.078750   -570.317904
PC35 -15124.921164  19432.466296  13098.679686    -67.952785
PC36 -26756.636635    128.344733  -7902.072480   -769.041716
PC37   6680.374120 -16939.136285 -21117.591499   -869.465740
PC38 -23953.858641  24755.681714 -24421.191573    179.043680
PC39 -15010.846374  37723.925707 -11072.431393     33.436241
PC40  -7168.965249  23673.721502  34175.190016    204.224238
PC41  13218.959169  -9084.846698  22875.834229   -929.286009
PC42  18008.452364  21243.329905  -1867.201650   -967.164088
PC43  16455.338538    -98.439826 -22545.800353   -938.336963
PC44  -4772.834010  27141.609295  -4314.895476    413.464714
PC45 -23274.849492  12079.632332   9589.079803    561.527531
PC46 -15044.554752 -11555.313333 -20466.824235     61.201477
PC59 -32342.856312  27080.946890    -11.846831     -0.472625
PC60   7295.168731  41540.520692   -204.410204     -0.705217
PE01  23963.005549  13994.892886  10305.423483   -485.660685
PE02 -24077.275726 -13917.335726 -10150.495489    250.343281
PE03 -15846.791035 -20371.254454 -14489.154049   -480.170422
PE04  17480.597435    179.833050  23886.433700   -867.843164
PE05  -4868.460554 -28972.520301   3599.438492   -245.339261
PE07  -8806.954074  20589.280851 -19363.284471   -591.089411
PE08 -17266.532832    316.288465 -24044.359096   5929.208867
PE09   8488.977573 -20736.400623  19331.353079   5514.016616
PE11  19635.261541 -21994.715072   2631.369684   5343.926771
PE12  23376.891415  -8552.491380 -16024.196539   4983.809923
PE13 -19841.840704  21865.416149  -2140.214508    422.081410
PE14    118.363435  29132.775959    846.020660  -1588.816413
PE15 -23310.753453   8640.805408  16075.369227    789.398338
PE18   9704.415579 -23259.833621 -12070.389146  -1744.458680
PE19  14839.033400  22288.410241  12615.618031    390.609654
PE21   6696.844857  17809.254444  22682.447379   -690.940741
PE24  16313.064392 -11003.364300 -22109.127876  -1145.973432
PE25  -6456.624184 -17787.995218 -22747.794827   -548.440489
PE26  -3795.779515  21897.301047 -19557.701036   1283.571084
PE27 -15289.125097  11592.667369  22553.113396   -131.959626
PE30 -28387.976608  -2340.034436   8075.146371   2577.826235
PE31  28112.808687   1407.577992  -9140.469320   -486.215146
PE33  13031.554199   9638.596581 -24765.013254   -464.311693
PE36   4710.763765 -22176.154854  19029.905301   -269.593792
PG01  -8559.382809  19087.356264 -16433.867262    552.599801
PG02  21760.281912 -14714.266589  -3542.538396   -635.103304
PG03    582.531052  16228.779652 -21143.153944   -307.936918
PG04   -895.738830  26295.884079  -3349.194229   -204.087385
PG05  13938.431547  -9666.208580  20309.507150    -56.128355
PG06  21497.760561  -2602.276910 -15355.543625     84.844517
PG07   7449.653797  13753.883591  21812.287483    254.551695
PG08  -7349.002039  21244.551884  13881.951728    -38.392268
PG09   8023.570279  24107.888268   7624.937930   -361.532247
PG10 -23946.111523 -11814.739769   1033.706842   -214.116771
PG12   1527.947062 -15919.607362 -21478.272433   -104.859515
PG13  12853.428419 -14752.465950  17744.188634    192.902784
PG14  23419.985270  12577.090855    594.325804     -9.516834
PG15   5039.762605 -22314.528148  12813.407170   -117.340651
PG16 -18236.094938   4248.030445  18769.017075   -399.339802
PG17  12398.954075  14646.946185 -17923.372222    512.377315
PG18  -8456.343289 -12415.058710  21893.217856    316.175060
PG19  14586.733729   5163.663422 -21876.737056     59.775580
PG20  22516.158391  -3597.970807  13371.634023    518.872350
PG21 -15145.876683  19678.451187  -7915.351739    145.352415
PG22  -7504.044073  13898.343199 -21167.805374   -500.544989
PG23 -17483.435111 -16311.530069  11620.211080     50.900632
PG24  11247.013883 -20728.204698 -12072.747836    245.326777
PG25  -9802.785411 -17925.464966 -17378.944703    216.860843
PG26 -24951.964301  -3123.114651   8921.797909    139.904639
PG27 -12437.819071  12033.846145  19855.072539   -200.040406
PG28  23905.366331   9511.408631  -5609.262325    491.312027
PG29  -3793.960566 -25740.202810   5112.787001   -419.466868
PG30  17529.659240   5388.761007  19359.781595   -477.981104
PG31 -22869.217690   3819.795381 -13467.017425   -142.515681
PG32 -14730.336585 -10450.896649 -19419.363847     -5.426489
PJ01 -20191.185702  22110.606331 -25177.433494    186.827915
PJ02 -29211.176232  22006.864431  25940.711940     -2.970526
PJ03 -31033.022920  26270.130486  16273.954575     -2.905417
PJ07 -25398.693154  33669.422282    -26.319276     -0.035728
PR01  12858.170035    251.130551  22024.983140     86.041446
PR02   -332.075559 -17362.892167  18745.799928    495.067721
PR03 -11766.549532 -22323.366251   3963.826254     43.878848
PR04 -16308.999257 -14781.772353 -12881.194457    107.211887
PR05 -11867.674751    896.165380 -22560.792116     79.867894
PR06   1417.465906  17948.447423 -18074.363373     -6.890375
PR07  12095.455036  22198.208839  -3181.382833    -40.919387
PR08  16406.212024  14598.191393  13002.894932    -61.242781
PR09 -10223.287081  10786.697149  20732.328072     15.882226
PR10   7705.294247  10176.111699  22071.499497    -75.486238
PR12  23893.110303  -4624.625674  -7580.221171    266.253202
PR13  11230.442593 -10378.033907 -20425.229183    -61.444876
PR14  -9028.787701 -10063.416368 -21608.260400     69.385856
PR15 -23129.081086  -3881.073314 -10003.463553    101.140803
PR16 -23333.740682   5796.137751   8697.164162    -22.353301
PR17   1042.378860 -18637.982933  17365.893344    462.781064
PR18  -9363.680826  -4630.284336  23284.254284     92.193552
PR19 -15143.708326  10700.008535  17523.688733   -161.348091
PR20 -12419.207979  22243.791915   -907.580504    -56.766091
PR21   -337.691807  17852.459914 -18234.500114   -243.230024
PR22   9874.985544   3563.000317 -23264.649595   -136.205554
PR23  15257.629731 -16182.630455 -12488.814679    -14.984047
PR24  11646.742724 -22619.988773   1656.777829     60.768488
EOF
